[{"OBJECT_NAME":"STARLINK-3126","OBJECT_ID":"2021-104AN","EPOCH":"2026-01-02T16:57:20.939904","MEAN_MOTION":15.08841287,"ECCENTRICITY":0.0001332,"INCLINATION":53.2178,"RA_OF_ASC_NODE":145.3399,"ARG_OF_PERICENTER":74.223,"MEAN_ANOMALY":285.8909,"EPHEMERIS_TYPE":0,"CLASSIFICATION_TYPE":"U","NORAD_CAT_ID":49444,"ELEMENT_SET_NO":999,"REV_AT_EPOCH":22895,"BSTAR":7.2721e-5,"MEAN_MOTION_DOT":8.7e-6,"MEAN_MOTION_DDOT":0},{"OBJECT_NAME":"STARLINK-3122","OBJECT_ID":"2021-104AP","EPOCH":"2026-01-02T16:34:53.391072","MEAN_MOTION":15.08868384,"ECCENTRICITY":0.0001677,"INCLINATION":53.2189,"RA_OF_ASC_NODE":155.7995,"ARG_OF_PERICENTER":104.5097,"MEAN_ANOMALY":255.6082,"EPHEMERIS_TYPE":0,"CLASSIFICATION_TYPE":"U","NORAD_CAT_ID":49445,"ELEMENT_SET_NO":999,"REV_AT_EPOCH":22880,"BSTAR":-0.00060579,"MEAN_MOTION_DOT":-9.924e-5,"MEAN_MOTION_DDOT":0},{"OBJECT_NAME":"STARLINK-3099","OBJECT_ID":"2021-104AQ","EPOCH":"2026-01-02T16:50:40.627968","MEAN_MOTION":15.08839662,"ECCENTRICITY":0.000132,"INCLINATION":53.2165,"RA_OF_ASC_NODE":145.3496,"ARG_OF_PERICENTER":86.5082,"MEAN_ANOMALY":273.6061,"EPHEMERIS_TYPE":0,"CLASSIFICATION_TYPE":"U","NORAD_CAT_ID":49446,"ELEMENT_SET_NO":999,"REV_AT_EPOCH":22895,"BSTAR":0.00010182,"MEAN_MOTION_DOT":1.333e-5,"MEAN_MOTION_DDOT":0},{"OBJECT_NAME":"STARLINK-3115","OBJECT_ID":"2021-104AR","EPOCH":"2026-01-02T17:05:15.173952","MEAN_MOTION":15.08845576,"ECCENTRICITY":0.0001445,"INCLINATION":53.2152,"RA_OF_ASC_NODE":155.3065,"ARG_OF_PERICENTER":87.6675,"MEAN_ANOMALY":272.4482,"EPHEMERIS_TYPE":0,"CLASSIFICATION_TYPE":"U","NORAD_CAT_ID":49447,"ELEMENT_SET_NO":999,"REV_AT_EPOCH":22881,"BSTAR":2.13e-5,"MEAN_MOTION_DOT":5.1e-7,"MEAN_MOTION_DDOT":0},{"OBJECT_NAME":"STARLINK-3137","OBJECT_ID":"2021-104AT","EPOCH":"2026-01-02T20:00:01.999872","MEAN_MOTION":15.18924742,"ECCENTRICITY":0.0001405,"INCLINATION":53.2177,"RA_OF_ASC_NODE":154.4073,"ARG_OF_PERICENTER":93.3606,"MEAN_ANOMALY":59.0643,"EPHEMERIS_TYPE":0,"CLASSIFICATION_TYPE":"U","NORAD_CAT_ID":49449,"ELEMENT_SET_NO":999,"REV_AT_EPOCH":572,"BSTAR":0.096324,"MEAN_MOTION_DOT":0.02250336,"MEAN_MOTION_DDOT":0},{"OBJECT_NAME":"STARLINK-3127","OBJECT_ID":"2021-104AU","EPOCH":"2026-01-02T15:40:28.098336","MEAN_MOTION":15.0883681,"ECCENTRICITY":0.00012198,"INCLINATION":53.2174,"RA_OF_ASC_NODE":155.6078,"ARG_OF_PERICENTER":83.3307,"MEAN_ANOMALY":276.7824,"EPHEMERIS_TYPE":0,"CLASSIFICATION_TYPE":"U","NORAD_CAT_ID":49450,"ELEMENT_SET_NO":999,"REV_AT_EPOCH":22906,"BSTAR":3.4335109e-5,"MEAN_MOTION_DOT":2.59e-6,"MEAN_MOTION_DDOT":0},{"OBJECT_NAME":"STARLINK-3125","OBJECT_ID":"2021-104AV","EPOCH":"2026-01-02T16:54:38.692800","MEAN_MOTION":15.08837152,"ECCENTRICITY":0.0001253,"INCLINATION":53.2169,"RA_OF_ASC_NODE":155.3382,"ARG_OF_PERICENTER":100.5069,"MEAN_ANOMALY":259.6065,"EPHEMERIS_TYPE":0,"CLASSIFICATION_TYPE":"U","NORAD_CAT_ID":49451,"ELEMENT_SET_NO":999,"REV_AT_EPOCH":22881,"BSTAR":3.8097e-5,"MEAN_MOTION_DOT":3.18e-6,"MEAN_MOTION_DDOT":0},{"OBJECT_NAME":"STARLINK-3150","OBJECT_ID":"2021-104AW","EPOCH":"2026-01-02T16:40:08.166144","MEAN_MOTION":15.08843087,"ECCENTRICITY":0.0001739,"INCLINATION":53.2184,"RA_OF_ASC_NODE":155.4263,"ARG_OF_PERICENTER":59.1516,"MEAN_ANOMALY":300.9647,"EPHEMERIS_TYPE":0,"CLASSIFICATION_TYPE":"U","NORAD_CAT_ID":49452,"ELEMENT_SET_NO":999,"REV_AT_EPOCH":22881,"BSTAR":-3.5623e-5,"MEAN_MOTION_DOT":-8.55e-6,"MEAN_MOTION_DDOT":0},{"OBJECT_NAME":"STARLINK-3129","OBJECT_ID":"2021-104AX","EPOCH":"2026-01-02T16:56:02.064480","MEAN_MOTION":15.08839084,"ECCENTRICITY":0.0001441,"INCLINATION":53.217,"RA_OF_ASC_NODE":155.4205,"ARG_OF_PERICENTER":110.9959,"MEAN_ANOMALY":249.1187,"EPHEMERIS_TYPE":0,"CLASSIFICATION_TYPE":"U","NORAD_CAT_ID":49453,"ELEMENT_SET_NO":999,"REV_AT_EPOCH":22881,"BSTAR":3.3385e-5,"MEAN_MOTION_DOT":2.43e-6,"MEAN_MOTION_DDOT":0},{"OBJECT_NAME":"STARLINK-3160","OBJECT_ID":"2021-104AY","EPOCH":"2026-01-02T16:49:20.700192","MEAN_MOTION":15.08839882,"ECCENTRICITY":0.0001323,"INCLINATION":53.2181,"RA_OF_ASC_NODE":155.3589,"ARG_OF_PERICENTER":90.4106,"MEAN_ANOMALY":269.7038,"EPHEMERIS_TYPE":0,"CLASSIFICATION_TYPE":"U","NORAD_CAT_ID":49454,"ELEMENT_SET_NO":999,"REV_AT_EPOCH":22881,"BSTAR":6.5495e-5,"MEAN_MOTION_DOT":7.55e-6,"MEAN_MOTION_DDOT":0},{"OBJECT_NAME":"STARLINK-3145","OBJECT_ID":"2021-104AZ","EPOCH":"2026-01-02T16:28:09.125472","MEAN_MOTION":15.0883842,"ECCENTRICITY":0.0001248,"INCLINATION":53.2164,"RA_OF_ASC_NODE":155.4234,"ARG_OF_PERICENTER":84.9177,"MEAN_ANOMALY":275.1957,"EPHEMERIS_TYPE":0,"CLASSIFICATION_TYPE":"U","NORAD_CAT_ID":49455,"ELEMENT_SET_NO":999,"REV_AT_EPOCH":22881,"BSTAR":0.00030182,"MEAN_MOTION_DOT":4.519e-5,"MEAN_MOTION_DDOT":0},{"OBJECT_NAME":"STARLINK-3124","OBJECT_ID":"2021-104BA","EPOCH":"2026-01-02T16:45:25.588512","MEAN_MOTION":15.08841661,"ECCENTRICITY":0.0001298,"INCLINATION":53.2178,"RA_OF_ASC_NODE":155.4169,"ARG_OF_PERICENTER":101.2577,"MEAN_ANOMALY":258.8561,"EPHEMERIS_TYPE":0,"CLASSIFICATION_TYPE":"U","NORAD_CAT_ID":49456,"ELEMENT_SET_NO":999,"REV_AT_EPOCH":22881,"BSTAR":7.9999e-5,"MEAN_MOTION_DOT":9.86e-6,"MEAN_MOTION_DDOT":0},{"OBJECT_NAME":"STARLINK-3132","OBJECT_ID":"2021-104BB","EPOCH":"2026-01-02T16:24:14.033664","MEAN_MOTION":15.0883874,"ECCENTRICITY":0.0001292,"INCLINATION":53.2166,"RA_OF_ASC_NODE":155.4436,"ARG_OF_PERICENTER":80.5331,"MEAN_ANOMALY":279.5807,"EPHEMERIS_TYPE":0,"CLASSIFICATION_TYPE":"U","NORAD_CAT_ID":49457,"ELEMENT_SET_NO":999,"REV_AT_EPOCH":22881,"BSTAR":-1.4785e-5,"MEAN_MOTION_DOT":-5.23e-6,"MEAN_MOTION_DDOT":0},{"OBJECT_NAME":"STARLINK-3156","OBJECT_ID":"2021-104BC","EPOCH":"2026-01-02T16:33:26.978976","MEAN_MOTION":15.08839134,"ECCENTRICITY":0.0001266,"INCLINATION":53.2176,"RA_OF_ASC_NODE":155.4063,"ARG_OF_PERICENTER":77.9829,"MEAN_ANOMALY":282.1305,"EPHEMERIS_TYPE":0,"CLASSIFICATION_TYPE":"U","NORAD_CAT_ID":49458,"ELEMENT_SET_NO":999,"REV_AT_EPOCH":22881,"BSTAR":1.5901e-5,"MEAN_MOTION_DOT":-3.5e-7,"MEAN_MOTION_DDOT":0},{"OBJECT_NAME":"STARLINK-3141","OBJECT_ID":"2021-104BD","EPOCH":"2026-01-02T16:17:33.306144","MEAN_MOTION":15.0886424,"ECCENTRICITY":0.0001384,"INCLINATION":53.2161,"RA_OF_ASC_NODE":155.4531,"ARG_OF_PERICENTER":105.3311,"MEAN_ANOMALY":254.7834,"EPHEMERIS_TYPE":0,"CLASSIFICATION_TYPE":"U","NORAD_CAT_ID":49459,"ELEMENT_SET_NO":999,"REV_AT_EPOCH":22881,"BSTAR":0.00036171,"MEAN_MOTION_DOT":5.477e-5,"MEAN_MOTION_DDOT":0},{"OBJECT_NAME":"STARLINK-3140","OBJECT_ID":"2021-104BE","EPOCH":"2026-01-02T17:47:38.124672","MEAN_MOTION":15.08848453,"ECCENTRICITY":0.0001339,"INCLINATION":53.2172,"RA_OF_ASC_NODE":155.1724,"ARG_OF_PERICENTER":77.8809,"MEAN_ANOMALY":282.2334,"EPHEMERIS_TYPE":0,"CLASSIFICATION_TYPE":"U","NORAD_CAT_ID":49460,"ELEMENT_SET_NO":999,"REV_AT_EPOCH":22881,"BSTAR":-1.8159e-5,"MEAN_MOTION_DOT":-5.77e-6,"MEAN_MOTION_DDOT":0},{"OBJECT_NAME":"STARLINK-3219","OBJECT_ID":"2021-115A","EPOCH":"2026-01-02T13:05:29.798592","MEAN_MOTION":15.08838914,"ECCENTRICITY":0.00014321,"INCLINATION":53.2196,"RA_OF_ASC_NODE":86.2751,"ARG_OF_PERICENTER":96.7128,"MEAN_ANOMALY":263.4027,"EPHEMERIS_TYPE":0,"CLASSIFICATION_TYPE":"U","NORAD_CAT_ID":49724,"ELEMENT_SET_NO":999,"REV_AT_EPOCH":22554,"BSTAR":4.6196748e-5,"MEAN_MOTION_DOT":4.47e-6,"MEAN_MOTION_DDOT":0}]
