STARLINK-3126           
1 49444U 21104AN  26002.70649236  .00000870  00000+0  72721-4 0  9997
2 49444  53.2178 145.3399 0001332  74.2230 285.8909 15.08841287228955
STARLINK-3122           
1 49445U 21104AP  26002.69089573 -.00009924  00000+0 -60579-3 0  9996
2 49445  53.2189 155.7995 0001677 104.5097 255.6082 15.08868384228803
STARLINK-3099           
1 49446U 21104AQ  26002.70185912  .00001333  00000+0  10182-3 0  9992
2 49446  53.2165 145.3496 0001320  86.5082 273.6061 15.08839662228957
STARLINK-3115           
1 49447U 21104AR  26002.71198118  .00000051  00000+0  21300-4 0  9997
2 49447  53.2152 155.3065 0001445  87.6675 272.4482 15.08845576228815
STARLINK-3137           
1 49449U 21104AT  26002.83335648  .02250336  00000+0  96324-1 0  9993
2 49449  53.2177 154.4073 0001405  93.3606  59.0643 15.18924742  5722
STARLINK-3127           
1 49450U 21104AU  26002.65310299  .00000259  00000+0  34335-4 0  9992
2 49450  53.2174 155.6078 0001219  83.3307 276.7824 15.08836810229060
STARLINK-3125           
1 49451U 21104AV  26002.70461450  .00000318  00000+0  38097-4 0  9990
2 49451  53.2169 155.3382 0001253 100.5069 259.6065 15.08837152228814
STARLINK-3150           
1 49452U 21104AW  26002.69453896 -.00000855  00000+0 -35623-4 0  9994
2 49452  53.2184 155.4263 0001739  59.1516 300.9647 15.08843087228816
STARLINK-3129           
1 49453U 21104AX  26002.70557945  .00000243  00000+0  33385-4 0  9999
2 49453  53.2170 155.4205 0001441 110.9959 249.1187 15.08839084228810
STARLINK-3160           
1 49454U 21104AY  26002.70093403  .00000755  00000+0  65495-4 0  9999
2 49454  53.2181 155.3589 0001323  90.4106 269.7038 15.08839882228811
STARLINK-3145           
1 49455U 21104AZ  26002.68621673  .00004519  00000+0  30182-3 0  9999
2 49455  53.2164 155.4234 0001248  84.9177 275.1957 15.08838420228811
STARLINK-3124           
1 49456U 21104BA  26002.69821283  .00000986  00000+0  79999-4 0  9994
2 49456  53.2178 155.4169 0001298 101.2577 258.8561 15.08841661228816
STARLINK-3132           
1 49457U 21104BB  26002.68349576 -.00000523  00000+0 -14785-4 0  9995
2 49457  53.2166 155.4436 0001292  80.5331 279.5807 15.08838740228819
STARLINK-3156           
1 49458U 21104BC  26002.68989559 -.00000035  00000+0  15901-4 0  9995
2 49458  53.2176 155.4063 0001266  77.9829 282.1305 15.08839134228811
STARLINK-3141           
1 49459U 21104BD  26002.67885771  .00005477  00000+0  36171-3 0  9991
2 49459  53.2161 155.4531 0001384 105.3311 254.7834 15.08864240228817
STARLINK-3140           
1 49460U 21104BE  26002.74141348 -.00000577  00000+0 -18159-4 0  9991
2 49460  53.2172 155.1724 0001339  77.8809 282.2334 15.08848453228816
STARLINK-3219           
1 49724U 21115A   26002.54548378  .00000447  00000+0  46197-4 0  9995
2 49724  53.2196  86.2751 0001432  96.7128 263.4027 15.08838914225545
